PROGRESS-MS 32          
1 65586U 25204A   25301.52216109  .00016210  00000+0  29595-3 0  9992
2 65586  51.6346   6.3420 0004739 349.4592  10.6297 15.49553329   271
CYGNUS NG-23            
1 65616U 25208A   25301.52216109  .00016210  00000+0  29595-3 0  9990
2 65616  51.6346   6.3420 0004739 349.4592  10.6297 15.49553329   220
DRAGONFLY               
1 65729U 98067XH  25301.58481986  .00099944  00000+0  12599-2 0  9991
2 65729  51.6321   4.5142 0002915  51.6729 308.4525 15.58795618  6099
1998-067XJ              
1 65730U 98067XJ  25301.57445196  .00235295  00000+0  22067-2 0  9997
2 65730  51.6305   3.6916 0010369  25.6404 334.5104 15.65842260  6104
1998-067XK              
1 65731U 98067XK  25301.60448984  .00071738  00000+0  97090-3 0  9999
2 65731  51.6329   4.6465 0004483  27.1398 332.9827 15.57042006  6093
RSP-03                  
1 65732U 98067XL  25301.59485543  .00085564  00000+0  11184-2 0  9991
2 65732  51.6323   4.5814 0005175  27.0741 333.0520 15.57894823  6101
GHS-01                  
1 65733U 98067XM  25301.45003707  .00110048  00000+0  13550-2 0  9990
2 65733  51.6331   5.1158 0003354  46.9345 313.1928 15.59370943  6088
YOTSUBA-KULOVER         
1 65941U 98067XN  25301.56156064  .00057339  00000+0  91198-3 0  9996
2 65941  51.6330   5.8560 0002410 324.6826  35.4004 15.52735116  2821
BOTAN                   
1 65942U 98067XP  25301.55756040  .00075233  00000+0  11622-2 0  9992
2 65942  51.6331   5.8297 0004385 346.1150  13.9719 15.53420212  2825
E-KAGAKU-1              
1 65943U 98067XQ  25301.56115012  .00055962  00000+0  88980-3 0  9991
2 65943  51.6335   5.8532 0004147 335.4056  24.6736 15.52749009  2829
HRC MONOBLOCK CAMERA    
1 66052U 98067XR  25301.58262975  .00035384  00000+0  61781-3 0  9992
2 66052  51.6331   5.9964 0004228 357.2413   2.8552 15.50330886  1826
HTV-X 1                 
1 66174U 25241A   25300.49424941  .00010095  00000+0  16773-3 0  9996
2 66174  51.6338  11.4824 0004046 344.0379  16.0483 15.52723727   245
