CCSDS_OMM_VERS = 2.0
CREATION_DATE  = 
ORIGINATOR     = 

OBJECT_NAME    = PROGRESS-MS 32
OBJECT_ID      = 2025-204A
CENTER_NAME    = EARTH
REF_FRAME      = TEME
TIME_SYSTEM    = UTC
MEAN_ELEMENT_THEORY = SGP/SGP4

EPOCH          = 2025-10-28T12:31:54.718176
MEAN_MOTION    = 15.49553329
ECCENTRICITY   = .00047397
INCLINATION    = 51.6346
RA_OF_ASC_NODE = 6.3420
ARG_OF_PERICENTER = 349.4592
MEAN_ANOMALY   = 10.6297

EPHEMERIS_TYPE = 0
CLASSIFICATION_TYPE = U
NORAD_CAT_ID   = 65586
ELEMENT_SET_NO = 999
REV_AT_EPOCH   = 27
BSTAR          = .29595356E-3
MEAN_MOTION_DOT = .1621E-3
MEAN_MOTION_DDOT = 0

CCSDS_OMM_VERS = 2.0
CREATION_DATE  = 
ORIGINATOR     = 

OBJECT_NAME    = CYGNUS NG-23
OBJECT_ID      = 2025-208A
CENTER_NAME    = EARTH
REF_FRAME      = TEME
TIME_SYSTEM    = UTC
MEAN_ELEMENT_THEORY = SGP/SGP4

EPOCH          = 2025-10-28T12:31:54.718176
MEAN_MOTION    = 15.49553329
ECCENTRICITY   = .00047397
INCLINATION    = 51.6346
RA_OF_ASC_NODE = 6.3420
ARG_OF_PERICENTER = 349.4592
MEAN_ANOMALY   = 10.6297

EPHEMERIS_TYPE = 0
CLASSIFICATION_TYPE = U
NORAD_CAT_ID   = 65616
ELEMENT_SET_NO = 999
REV_AT_EPOCH   = 22
BSTAR          = .29595356E-3
MEAN_MOTION_DOT = .1621E-3
MEAN_MOTION_DDOT = 0

CCSDS_OMM_VERS = 2.0
CREATION_DATE  = 
ORIGINATOR     = 

OBJECT_NAME    = DRAGONFLY
OBJECT_ID      = 1998-067XH
CENTER_NAME    = EARTH
REF_FRAME      = TEME
TIME_SYSTEM    = UTC
MEAN_ELEMENT_THEORY = SGP/SGP4

EPOCH          = 2025-10-28T14:02:08.435904
MEAN_MOTION    = 15.58795618
ECCENTRICITY   = .00029159
INCLINATION    = 51.6321
RA_OF_ASC_NODE = 4.5142
ARG_OF_PERICENTER = 51.6729
MEAN_ANOMALY   = 308.4525

EPHEMERIS_TYPE = 0
CLASSIFICATION_TYPE = U
NORAD_CAT_ID   = 65729
ELEMENT_SET_NO = 999
REV_AT_EPOCH   = 609
BSTAR          = .1259891E-2
MEAN_MOTION_DOT = .99944E-3
MEAN_MOTION_DDOT = 0

CCSDS_OMM_VERS = 2.0
CREATION_DATE  = 
ORIGINATOR     = 

OBJECT_NAME    = 1998-067XJ
OBJECT_ID      = 1998-067XJ
CENTER_NAME    = EARTH
REF_FRAME      = TEME
TIME_SYSTEM    = UTC
MEAN_ELEMENT_THEORY = SGP/SGP4

EPOCH          = 2025-10-28T13:47:12.649344
MEAN_MOTION    = 15.65842260
ECCENTRICITY   = .00103692
INCLINATION    = 51.6305
RA_OF_ASC_NODE = 3.6916
ARG_OF_PERICENTER = 25.6404
MEAN_ANOMALY   = 334.5104

EPHEMERIS_TYPE = 0
CLASSIFICATION_TYPE = U
NORAD_CAT_ID   = 65730
ELEMENT_SET_NO = 999
REV_AT_EPOCH   = 610
BSTAR          = .22066633E-2
MEAN_MOTION_DOT = .235295E-2
MEAN_MOTION_DDOT = 0

CCSDS_OMM_VERS = 2.0
CREATION_DATE  = 
ORIGINATOR     = 

OBJECT_NAME    = 1998-067XK
OBJECT_ID      = 1998-067XK
CENTER_NAME    = EARTH
REF_FRAME      = TEME
TIME_SYSTEM    = UTC
MEAN_ELEMENT_THEORY = SGP/SGP4

EPOCH          = 2025-10-28T14:30:27.922176
MEAN_MOTION    = 15.57042006
ECCENTRICITY   = .00044833
INCLINATION    = 51.6329
RA_OF_ASC_NODE = 4.6465
ARG_OF_PERICENTER = 27.1398
MEAN_ANOMALY   = 332.9827

EPHEMERIS_TYPE = 0
CLASSIFICATION_TYPE = U
NORAD_CAT_ID   = 65731
ELEMENT_SET_NO = 999
REV_AT_EPOCH   = 609
BSTAR          = .97090079E-3
MEAN_MOTION_DOT = .71738E-3
MEAN_MOTION_DDOT = 0

CCSDS_OMM_VERS = 2.0
CREATION_DATE  = 
ORIGINATOR     = 

OBJECT_NAME    = RSP-03
OBJECT_ID      = 1998-067XL
CENTER_NAME    = EARTH
REF_FRAME      = TEME
TIME_SYSTEM    = UTC
MEAN_ELEMENT_THEORY = SGP/SGP4

EPOCH          = 2025-10-28T14:16:35.509152
MEAN_MOTION    = 15.57894823
ECCENTRICITY   = .00051752
INCLINATION    = 51.6323
RA_OF_ASC_NODE = 4.5814
ARG_OF_PERICENTER = 27.0741
MEAN_ANOMALY   = 333.0520

EPHEMERIS_TYPE = 0
CLASSIFICATION_TYPE = U
NORAD_CAT_ID   = 65732
ELEMENT_SET_NO = 999
REV_AT_EPOCH   = 610
BSTAR          = .11183665E-2
MEAN_MOTION_DOT = .85564E-3
MEAN_MOTION_DDOT = 0

CCSDS_OMM_VERS = 2.0
CREATION_DATE  = 
ORIGINATOR     = 

OBJECT_NAME    = GHS-01
OBJECT_ID      = 1998-067XM
CENTER_NAME    = EARTH
REF_FRAME      = TEME
TIME_SYSTEM    = UTC
MEAN_ELEMENT_THEORY = SGP/SGP4

EPOCH          = 2025-10-28T10:48:03.202848
MEAN_MOTION    = 15.59370943
ECCENTRICITY   = .00033545
INCLINATION    = 51.6331
RA_OF_ASC_NODE = 5.1158
ARG_OF_PERICENTER = 46.9345
MEAN_ANOMALY   = 313.1928

EPHEMERIS_TYPE = 0
CLASSIFICATION_TYPE = U
NORAD_CAT_ID   = 65733
ELEMENT_SET_NO = 999
REV_AT_EPOCH   = 608
BSTAR          = .13549776E-2
MEAN_MOTION_DOT = .110048E-2
MEAN_MOTION_DDOT = 0

CCSDS_OMM_VERS = 2.0
CREATION_DATE  = 
ORIGINATOR     = 

OBJECT_NAME    = YOTSUBA-KULOVER
OBJECT_ID      = 1998-067XN
CENTER_NAME    = EARTH
REF_FRAME      = TEME
TIME_SYSTEM    = UTC
MEAN_ELEMENT_THEORY = SGP/SGP4

EPOCH          = 2025-10-28T13:28:38.839296
MEAN_MOTION    = 15.52735116
ECCENTRICITY   = .00024105
INCLINATION    = 51.6330
RA_OF_ASC_NODE = 5.8560
ARG_OF_PERICENTER = 324.6826
MEAN_ANOMALY   = 35.4004

EPHEMERIS_TYPE = 0
CLASSIFICATION_TYPE = U
NORAD_CAT_ID   = 65941
ELEMENT_SET_NO = 999
REV_AT_EPOCH   = 282
BSTAR          = .91197536E-3
MEAN_MOTION_DOT = .57339E-3
MEAN_MOTION_DDOT = 0

CCSDS_OMM_VERS = 2.0
CREATION_DATE  = 
ORIGINATOR     = 

OBJECT_NAME    = BOTAN
OBJECT_ID      = 1998-067XP
CENTER_NAME    = EARTH
REF_FRAME      = TEME
TIME_SYSTEM    = UTC
MEAN_ELEMENT_THEORY = SGP/SGP4

EPOCH          = 2025-10-28T13:22:53.218560
MEAN_MOTION    = 15.53420212
ECCENTRICITY   = .00043855
INCLINATION    = 51.6331
RA_OF_ASC_NODE = 5.8297
ARG_OF_PERICENTER = 346.1150
MEAN_ANOMALY   = 13.9719

EPHEMERIS_TYPE = 0
CLASSIFICATION_TYPE = U
NORAD_CAT_ID   = 65942
ELEMENT_SET_NO = 999
REV_AT_EPOCH   = 282
BSTAR          = .11621615E-2
MEAN_MOTION_DOT = .75233E-3
MEAN_MOTION_DDOT = 0

CCSDS_OMM_VERS = 2.0
CREATION_DATE  = 
ORIGINATOR     = 

OBJECT_NAME    = E-KAGAKU-1
OBJECT_ID      = 1998-067XQ
CENTER_NAME    = EARTH
REF_FRAME      = TEME
TIME_SYSTEM    = UTC
MEAN_ELEMENT_THEORY = SGP/SGP4

EPOCH          = 2025-10-28T13:28:03.370368
MEAN_MOTION    = 15.52749009
ECCENTRICITY   = .00041477
INCLINATION    = 51.6335
RA_OF_ASC_NODE = 5.8532
ARG_OF_PERICENTER = 335.4056
MEAN_ANOMALY   = 24.6736

EPHEMERIS_TYPE = 0
CLASSIFICATION_TYPE = U
NORAD_CAT_ID   = 65943
ELEMENT_SET_NO = 999
REV_AT_EPOCH   = 282
BSTAR          = .88979813E-3
MEAN_MOTION_DOT = .55962E-3
MEAN_MOTION_DDOT = 0

CCSDS_OMM_VERS = 2.0
CREATION_DATE  = 
ORIGINATOR     = 

OBJECT_NAME    = HRC MONOBLOCK CAMERA
OBJECT_ID      = 1998-067XR
CENTER_NAME    = EARTH
REF_FRAME      = TEME
TIME_SYSTEM    = UTC
MEAN_ELEMENT_THEORY = SGP/SGP4

EPOCH          = 2025-10-28T13:58:59.210400
MEAN_MOTION    = 15.50330886
ECCENTRICITY   = .0004228
INCLINATION    = 51.6331
RA_OF_ASC_NODE = 5.9964
ARG_OF_PERICENTER = 357.2413
MEAN_ANOMALY   = 2.8552

EPHEMERIS_TYPE = 0
CLASSIFICATION_TYPE = U
NORAD_CAT_ID   = 66052
ELEMENT_SET_NO = 999
REV_AT_EPOCH   = 182
BSTAR          = .61780909E-3
MEAN_MOTION_DOT = .35384E-3
MEAN_MOTION_DDOT = 0

CCSDS_OMM_VERS = 2.0
CREATION_DATE  = 
ORIGINATOR     = 

OBJECT_NAME    = HTV-X 1
OBJECT_ID      = 2025-241A
CENTER_NAME    = EARTH
REF_FRAME      = TEME
TIME_SYSTEM    = UTC
MEAN_ELEMENT_THEORY = SGP/SGP4

EPOCH          = 2025-10-27T11:51:43.149024
MEAN_MOTION    = 15.52723727
ECCENTRICITY   = .0004046
INCLINATION    = 51.6338
RA_OF_ASC_NODE = 11.4824
ARG_OF_PERICENTER = 344.0379
MEAN_ANOMALY   = 16.0483

EPHEMERIS_TYPE = 0
CLASSIFICATION_TYPE = U
NORAD_CAT_ID   = 66174
ELEMENT_SET_NO = 999
REV_AT_EPOCH   = 24
BSTAR          = .16773E-3
MEAN_MOTION_DOT = .10095E-3
MEAN_MOTION_DDOT = 0

